{ "Cressida": {"gravitational_parameter": 22900000.0, "orbit": {"argument_of_periapsis": 0.7720638479122116, "eccentricity": 0.0004, "epoch": -440208000.0, "inclination": 0.00010471975511965978, "longitude_of_ascending_node": 1.7349096363599235, "mean_anomaly_at_epoch": 4.0804925247001425, "primary": "Uranus", "semi_major_axis": 61800000.0}, "radius": 41000.0}, "Cupid": {"gravitational_parameter": 200000.0, "orbit": {"argument_of_periapsis": 4.321574854278119, "eccentricity": 0.0013, "epoch": 146707200.0, "inclination": 0.0017278759594743863, "longitude_of_ascending_node": 3.190339699597995, "mean_anomaly_at_epoch": 2.8593729135423103, "primary": "Uranus", "semi_major_axis": 74392000.0}, "radius": 9000.0}, "Cyllene": {"gravitational_parameter": 1000.0, "orbit": {"argument_of_periapsis": 3.271253163720452, "eccentricity": 0.4155, "epoch": -43200.0, "inclination": 2.6238581842781956, "longitude_of_ascending_node": 4.408893676755396, "mean_anomaly_at_epoch": 2.2400428284721223, "primary": "Jupiter", "semi_major_axis": 23800000000.0}, "radius": 1000.0}, "Daphnis": {"gravitational_parameter": 5200.0, "orbit": {"argument_of_periapsis": 4.658824825640983, "eccentricity": 0.0, "epoch": 0.0, "inclination": 5.235987755982989e-05, "longitude_of_ascending_node": 2.318966617247306, "mean_anomaly_at_epoch": 1.9860101558443477, "primary": "Saturn", "semi_major_axis": 136504000.0}, "radius": 3800.0}, "Deimos": {"gravitational_parameter": 98500.0, "orbit": {"argument_of_periapsis": 4.550579505432295, "eccentricity": 0.0002, "epoch": -1577880000.0, "inclination": 0.031206487025658612, "longitude_of_ascending_node": 0.4280419990516093, "mean_anomaly_at_epoch": 5.678062202220633, "primary": "Mars", "semi_major_axis": 23458000.0}, "radius": 6200.0}, "Desdemona": {"gravitational_parameter": 11900000.0, "orbit": {"argument_of_periapsis": 3.198926719517807, "eccentricity": 0.0001, "epoch": -440208000.0, "inclination": 0.0019722220547535923, "longitude_of_ascending_node": 5.342260854136923, "mean_anomaly_at_epoch": 3.222349038079571, "primary": "Uranus", "semi_major_axis": 62700000.0}, "radius": 35000.0}, "Despina": {"gravitational_parameter": 140000000.0, "orbit": {"argument_of_periapsis": 3.0867369551996116, "eccentricity": 0.0002, "epoch": 0.0, "inclination": 0.001186823891356144, "longitude_of_ascending_node": 1.3449507215868304, "mean_anomaly_at_epoch": 4.028429353113152, "primary": "Neptune", "semi_major_axis": 52526000.0}, "radius": 75000.0}, "Dione": {"gravitational_parameter": 73114600000.0, "orbit": {"argument_of_periapsis": 4.962232862807678, "eccentricity": 0.0022, "epoch": 0.0, "inclination": 0.0004886921905584122, "longitude_of_ascending_node": 5.0686979471793325, "mean_anomaly_at_epoch": 5.624009355286368, "primary": "Saturn", "semi_major_axis": 377415000.0}, "radius": 561700.0}, "Earth": {"gravitational_parameter": 398600682732000.0, "orbit": {"argument_of_periapsis": 1.7974478410782888, "eccentricity": 0.016704641699383984, "epoch": 473385600, "inclination": 6.283151144094071, "longitude_of_ascending_node": 0.0, "mean_anomaly_at_epoch": 6.241832631610314, "primary": "Sun", "semi_major_axis": 149598387267.20206}, "radius": 6371000.0, "rotational_period": 86164.10035200001}, "Elara": {"gravitational_parameter": 58000000.0, "orbit": {"argument_of_periapsis": 2.478384991124468, "eccentricity": 0.2108, "epoch": -43200.0, "inclination": 0.4877322594698154, "longitude_of_ascending_node": 2.01604727227117, "mean_anomaly_at_epoch": 5.7767780247134315, "primary": "Jupiter", "semi_major_axis": 11740000000.0}, "radius": 43000.0}, "Enceladus": {"gravitational_parameter": 7202700000.0, "orbit": {"argument_of_periapsis": 0.0013264502315156904, "eccentricity": 0.0, "epoch": 0.0, "inclination": 5.235987755982989e-05, "longitude_of_ascending_node": 5.977874861128218, "mean_anomaly_at_epoch": 3.485178170137397, "primary": "Saturn", "semi_major_axis": 238042000.0}, "radius": 252100.0}, "Epimetheus": {"gravitational_parameter": 35100000.0, "orbit": {"argument_of_periapsis": 1.5529067019619547, "eccentricity": 0.0161, "epoch": 0.0, "inclination": 0.006161012259539983, "longitude_of_ascending_node": 3.3643315727293097, "mean_anomaly_at_epoch": 1.4028432928754822, "primary": "Saturn", "semi_major_axis": 151450000.0}, "radius": 58100.0}, "Erinome": {"gravitational_parameter": 3000.0, "orbit": {"argument_of_periapsis": 0.1793151273498974, "eccentricity": 0.2655, "epoch": -43200.0, "inclination": 2.8782922826339283, "longitude_of_ascending_node": 5.541368015204437, "mean_anomaly_at_epoch": 4.662402750607573, "primary": "Jupiter", "semi_major_axis": 23286000000.0}, "radius": 1600.0}, "Eris": {"orbit": {"argument_of_periapsis": 2.635038936141708, "eccentricity": 0.4406823944594159, "epoch": 212284843200.0, "inclination": 0.7687216368747299, "longitude_of_ascending_node": 0.6275002480720139, "mean_anomaly_at_epoch": 3.5633498899552576, "primary": "Sun", "semi_major_axis": 10139859490528.934}, "rotational_period": 93240.0}, "Erriapus": {"gravitational_parameter": 51000.0, "orbit": {"argument_of_periapsis": 4.93093910931942, "eccentricity": 0.4722, "epoch": -43200.0, "inclination": 0.6018069793801648, "longitude_of_ascending_node": 2.635185371123639, "mean_anomaly_at_epoch": 5.145736780362362, "primary": "Saturn", "semi_major_axis": 17602000000.0}, "radius": 5000.0}, "Euanthe": {"gravitational_parameter": 3000.0, "orbit": {"argument_of_periapsis": 5.596136447132018, "eccentricity": 0.232, "epoch": -43200.0, "inclination": 2.599057055607356, "longitude_of_ascending_node": 4.43831992794402, "mean_anomaly_at_epoch": 5.813709191685632, "primary": "Jupiter", "semi_major_axis": 21039000000.0}, "radius": 1500.0}, "Eukelade": {"gravitational_parameter": 6000.0, "orbit": {"argument_of_periapsis": 5.405022894038639, "eccentricity": 0.2619, "epoch": -43200.0, "inclination": 2.8844183883084287, "longitude_of_ascending_node": 3.3782243935751843, "mean_anomaly_at_epoch": 3.5752371595403045, "primary": "Jupiter", "semi_major_axis": 23323000000.0}, "radius": 2000.0}, "Euporie": {"gravitational_parameter": 1000.0, "orbit": {"argument_of_periapsis": 1.569120810712982, "eccentricity": 0.1438, "epoch": -43200.0, "inclination": 2.543642851856536, "longitude_of_ascending_node": 1.0496933720269497, "mean_anomaly_at_epoch": 1.2259716264783769, "primary": "Jupiter", "semi_major_axis": 19336000000.0}, "radius": 1000.0}, "Europa": {"gravitational_parameter": 3202739000000.0, "orbit": {"argument_of_periapsis": 1.552819435499355, "eccentricity": 0.0094, "epoch": -93355200.0, "inclination": 0.008133234314293577, "longitude_of_ascending_node": 3.8241211108746955, "mean_anomaly_at_epoch": 2.9847922735906223, "primary": "Jupiter", "semi_major_axis": 671100000.0}, "radius": 1560800.0}, "Eurydome": {"gravitational_parameter": 3000.0, "orbit": {"argument_of_periapsis": 3.903097259527439, "eccentricity": 0.2755, "epoch": -43200.0, "inclination": 2.622723720264399, "longitude_of_ascending_node": 5.279097388507249, "mean_anomaly_at_epoch": 5.021120271769967, "primary": "Jupiter", "semi_major_axis": 23146000000.0}, "radius": 1500.0}, "Farbauti": {"gravitational_parameter": 0.0, "orbit": {"argument_of_periapsis": 5.986392067877951, "eccentricity": 0.2414, "epoch": -43200.0, "inclination": 2.7317893452215247, "longitude_of_ascending_node": 2.358096899077019, "mean_anomaly_at_epoch": 4.936018017442723, "primary": "Saturn", "semi_major_axis": 20390000000.0}, "radius": 2500.0}, "Fenrir": {"gravitational_parameter": 0.0, "orbit": {"argument_of_periapsis": 2.1115342356477798, "eccentricity": 0.1347, "epoch": -43200.0, "inclination": 2.8791474939674058, "longitude_of_ascending_node": 3.954828818556551, "mean_anomaly_at_epoch": 2.2982146524410934, "primary": "Saturn", "semi_major_axis": 22454000000.0}, "radius": 2000.0}, "Ferdinand": {"gravitational_parameter": 420000.0, "orbit": {"argument_of_periapsis": 2.727914714282097, "eccentricity": 0.3993, "epoch": 0.0, "inclination": 2.963446896838732, "longitude_of_ascending_node": 3.793473129209675, "mean_anomaly_at_epoch": 0.4566304921992764, "primary": "Uranus", "semi_major_axis": 20430000000.0}, "radius": 10000.0}, "Fornjot": {"gravitational_parameter": 0.0, "orbit": {"argument_of_periapsis": 5.668602517674823, "eccentricity": 0.2077, "epoch": -43200.0, "inclination": 2.973552353207779, "longitude_of_ascending_node": 4.53691357738918, "mean_anomaly_at_epoch": 3.743713792235317, "primary": "Saturn", "semi_major_axis": 25146000000.0}, "radius": 3000.0}, "Francisco": {"gravitational_parameter": 560000.0, "orbit": {"argument_of_periapsis": 2.454700873174905, "eccentricity": 0.1324, "epoch": 0.0, "inclination": 2.5699973235616502, "longitude_of_ascending_node": 1.7582097818740476, "mean_anomaly_at_epoch": 0.05588544264885843, "primary": "Uranus", "semi_major_axis": 4282900000.0}, "radius": 11000.0}, "Galatea": {"gravitational_parameter": 250000000.0, "orbit": {"argument_of_periapsis": 5.98667132055827, "eccentricity": 0.0001, "epoch": 0.0, "inclination": 0.000593411945678072, "longitude_of_ascending_node": 0.6500827864903279, "mean_anomaly_at_epoch": 1.1518998530237374, "primary": "Neptune", "semi_major_axis": 61953000.0}, "radius": 88000.0}, "Ganymede": {"gravitational_parameter": 9887834000000.0, "orbit": {"argument_of_periapsis": 3.358310186809929, "eccentricity": 0.0013, "epoch": -93355200.0, "inclination": 0.0030892327760299633, "longitude_of_ascending_node": 1.1091916462274363, "mean_anomaly_at_epoch": 5.542118506782795, "primary": "Jupiter", "semi_major_axis": 1070400000.0}, "radius": 2631200.0}, "Greip": {"gravitational_parameter": 0.0, "orbit": {"argument_of_periapsis": 2.655692989834572, "eccentricity": 0.3146, "epoch": -43200.0, "inclination": 3.0508355324860883, "longitude_of_ascending_node": 6.097307741842191, "mean_anomaly_at_epoch": 5.489776082515484, "primary": "Saturn", "semi_major_axis": 18457000000.0}, "radius": 3000.0}}